     2.100          NAVIGATION                              RINEX VERSION / TYPE
fic2rin                                 11/21/2013 00:14:02 PGM / RUN BY / DATE
                                                            END OF HEADER
28 13 11 20 13 59 44.0  .310287345201D-03  .295585778076D-11  .000000000000D+00
     .900000000000D+01 -.102406250000D+03  .397552273934D-08 -.159273446868D+01
    -.494718551636D-05  .190758885583D-01  .619143247604D-05  .515365501404D+04
     .309584000000D+06  .234693288803D-06 -.350770752358D+00  .389292836189D-06
     .985292144093D+00  .266812500000D+03 -.175387000750D+01 -.773782231136D-08
    -.151077721565D-09  .100000000000D+01  .176700000000D+04  .000000000000D+00
     .240000000000D+01  .000000000000D+00 -.107102096081D-07  .900000000000D+01
     .302406000000D+06  .400000000000D+01
29 13 11 20 13 59 44.0  .488535501063D-03  .306954461848D-11  .000000000000D+00
     .310000000000D+02 -.443437500000D+02  .427553523606D-08  .499326351404D+00
    -.222213566303D-05  .147561647464D-02  .108517706394D-04  .515380606079D+04
     .309584000000D+06 -.223517417908D-07  .686041995923D+00 -.558793544769D-08
     .967688385637D+00  .176531250000D+03 -.979590116592D+00 -.777353808478D-08
     .448232956416D-09  .100000000000D+01  .176700000000D+04  .000000000000D+00
     .240000000000D+01  .000000000000D+00 -.931322574615D-08  .310000000000D+02
     .302406000000D+06  .400000000000D+01
 1 13 11 20 14  0  0.0  .957972370088D-04  .318323145621D-11  .000000000000D+00
     .620000000000D+02  .167187500000D+02  .496234955892D-08  .157817556354D+01
     .968575477600D-06  .253811664879D-02  .589527189732D-05  .515368045235D+04
     .309600000000D+06 -.111758708954D-07  .168643700052D+01  .106170773506D-06
     .959996932914D+00  .264937500000D+03  .433134765002D+00 -.819391273793D-08
     .188936441390D-09  .100000000000D+01  .176700000000D+04  .000000000000D+00
     .240000000000D+01  .000000000000D+00  .791624188423D-08  .620000000000D+02
     .302406000000D+06  .400000000000D+01
 3 13 11 20 14  0  0.0  .288771465421D-03  .522959453519D-11  .000000000000D+00
     .171000000000D+03 -.634687500000D+02  .480412868267D-08  .257964457383D+01
    -.336579978466D-05  .167034543119D-01  .101830810308D-04  .515374830437D+04
     .309600000000D+06  .149011611938D-06  .488611573662D+00 -.180676579475D-06
     .936519529112D+00  .167687500000D+03  .135089099168D+01 -.775139430526D-08
     .230366738556D-09  .100000000000D+01  .176700000000D+04  .000000000000D+00
     .240000000000D+01  .000000000000D+00 -.465661287308D-08  .171000000000D+03
     .302406000000D+06  .400000000000D+01
 4 13 11 20 14  0  0.0  .339373946190D-05  .454747350886D-12  .000000000000D+00
     .170000000000D+02  .170937500000D+02  .552915888309D-08 -.562691348936D+00
     .105239450932D-05  .106811416335D-01  .551529228687D-05  .515363174057D+04
     .309600000000D+06 -.540167093277D-07  .167716716452D+01  .152736902237D-06
     .937544803544D+00  .260593750000D+03  .105505572148D+01 -.862678791177D-08
     .193222334200D-09  .100000000000D+01  .176700000000D+04  .000000000000D+00
     .240000000000D+01  .000000000000D+00 -.651925802231D-08  .170000000000D+02
     .302406000000D+06  .400000000000D+01
 5 13 11 20 14  0  0.0 -.397187191993D-03  .795807864051D-12  .000000000000D+00
     .580000000000D+02 -.135625000000D+02  .485805950054D-08 -.163537251663D+01
    -.748783349991D-06  .345135049429D-02  .809878110886D-05  .515374129677D+04
     .309600000000D+06  .204890966415D-07  .272748331230D+01 -.316649675369D-07
     .948134178486D+00  .217187500000D+03  .334712591723D+00 -.805747848346D-08
    -.535736601294D-09  .100000000000D+01  .176700000000D+04  .000000000000D+00
     .240000000000D+01  .000000000000D+00 -.102445483208D-07  .580000000000D+02
     .302406000000D+06  .400000000000D+01
 6 13 11 20 14  0  0.0  .158180017024D-03  .170530256582D-10  .000000000000D+00
     .110000000000D+02 -.479687500000D+02  .477055585566D-08 -.186895022706D+01
    -.263564288616D-05  .824293587357D-02  .106450170279D-04  .515368581390D+04
     .309600000000D+06 -.819563865662D-07  .569374937414D+00 -.160187482834D-06
     .942994909237D+00  .166875000000D+03 -.202251281538D+00 -.802104839458D-08
     .410731394325D-09  .100000000000D+01  .176700000000D+04  .000000000000D+00
     .240000000000D+01  .000000000000D+00 -.512227416039D-08  .110000000000D+02
     .302406000000D+06  .400000000000D+01
 7 13 11 20 14  0  0.0  .282798428088D-03  .420641299570D-11  .000000000000D+00
     .650000000000D+02  .480000000000D+02  .436839624695D-08  .103243259746D+01
     .255927443504D-05  .700829725247D-02  .191107392311D-05  .515366051102D+04
     .309600000000D+06 -.409781932831D-07 -.143613749275D+01  .143423676491D-06
     .974357015778D+00  .349593750000D+03 -.283944646598D+01 -.824927218673D-08
     .950039572962D-10  .100000000000D+01  .176700000000D+04  .000000000000D+00
     .240000000000D+01  .000000000000D+00 -.107102096081D-07  .650000000000D+02
     .302406000000D+06  .400000000000D+01
 8 13 11 20 14  0  0.0  .100196339190D-04  .227373675443D-12  .000000000000D+00
     .860000000000D+02  .282812500000D+02  .391302013585D-08  .461918079051D+00
     .157579779625D-05  .134809412993D-01  .185146927834D-05  .515366703796D+04
     .309600000000D+06  .163912773132D-06 -.134087423213D+01  .258907675743D-06
     .997349599751D+00  .362468750000D+03 -.280544830541D+01 -.812569561070D-08
     .116433421348D-09  .100000000000D+01  .176700000000D+04  .000000000000D+00
     .340000000000D+01  .000000000000D+00 -.465661287308D-08  .860000000000D+02
     .302406000000D+06  .400000000000D+01
 9 13 11 20 14  0  0.0  .284471083432D-03  .284217094304D-11  .000000000000D+00
     .153000000000D+03  .527187500000D+02  .403945397376D-08  .220716508270D+01
     .260025262833D-05  .168270032154D-01  .141002237797D-05  .515370731163D+04
     .309600000000D+06  .268220901489D-06 -.145803214647D+01  .186264514923D-08
     .982933776783D+00  .359031250000D+03  .174512409220D+01 -.784425531615D-08
     .114290474943D-09  .100000000000D+01  .176700000000D+04  .000000000000D+00
     .340000000000D+01  .000000000000D+00 -.605359673500D-08  .153000000000D+03
     .302406000000D+06  .400000000000D+01
10 13 11 20 14  0  0.0 -.102587975562D-03 -.159161572810D-11  .000000000000D+00
     .970000000000D+02 -.990625000000D+01  .494377735674D-08 -.133386660876D+01
    -.489875674248D-06  .131659294711D-01  .793859362602D-05  .515367262077D+04
     .309600000000D+06  .337138772011D-06  .274586289717D+01  .745058059692D-07
     .942961224086D+00  .214812500000D+03  .834153194103D+00 -.807247910830D-08
    -.561451958156D-09  .100000000000D+01  .176700000000D+04  .000000000000D+00
     .240000000000D+01  .000000000000D+00 -.279396772385D-08  .970000000000D+02
     .302406000000D+06  .400000000000D+01
11 13 11 20 14  0  0.0 -.439633149654D-03 -.341060513165D-11  .000000000000D+00
     .350000000000D+02  .204687500000D+02  .655884463078D-08  .127443560568D+01
     .966712832451D-06  .147706457647D-01  .706873834133D-05  .515368849945D+04
     .309600000000D+06 -.370666384697D-06  .137622260172D+01 -.102445483208D-06
     .889201587204D+00  .208937500000D+03  .124196061493D+01 -.909395022810D-08
     .366086677551D-09  .100000000000D+01  .176700000000D+04  .000000000000D+00
     .240000000000D+01  .000000000000D+00 -.116415321827D-07  .350000000000D+02
     .302406000000D+06  .400000000000D+01
12 13 11 20 14  0  0.0  .169216655195D-03  .227373675443D-11  .000000000000D+00
     .160000000000D+02 -.116562500000D+03  .403731102735D-08  .727759296404D+00
    -.614114105701D-05  .457057892345D-02  .572390854359D-05  .515372641373D+04
     .309600000000D+06  .316649675369D-07 -.375253782141D+00  .113621354103D-06
     .986148169144D+00  .286687500000D+03  .328880529823D+00 -.794925969000D-08
    -.226795161215D-09  .100000000000D+01  .176700000000D+04  .000000000000D+00
     .240000000000D+01  .000000000000D+00 -.121071934700D-07  .160000000000D+02
     .302406000000D+06  .400000000000D+01
13 13 11 20 14  0  0.0  .579291954637D-04 -.386535248253D-11  .000000000000D+00
     .470000000000D+02  .100781250000D+03  .377622872366D-08 -.288869411825D+01
     .523589551449D-05  .504746625666D-02  .900030136108D-05  .515368122292D+04
     .309600000000D+06  .372529029846D-07 -.240229762639D+01  .391155481339D-07
     .979833162876D+00  .216937500000D+03  .219811158010D+01 -.758495880112D-08
     .167864135072D-10  .100000000000D+01  .176700000000D+04  .000000000000D+00
     .240000000000D+01  .000000000000D+00 -.111758708954D-07  .470000000000D+02
     .302406000000D+06  .400000000000D+01
14 13 11 20 14  0  0.0  .210116151720D-03 -.102318153949D-11  .000000000000D+00
     .430000000000D+02  .103750000000D+03  .382051628270D-08 -.261732343044D+01
     .545382499695D-05  .737105961889D-02  .984780490398D-05  .515359258270D+04
     .309600000000D+06  .167638063431D-07 -.243281125215D+01 -.633299350739D-07
     .972472682202D+00  .195500000000D+03 -.198905167740D+01 -.755817197106D-08
     .621454457501D-10  .100000000000D+01  .176700000000D+04  .000000000000D+00
     .240000000000D+01  .000000000000D+00 -.884756445885D-08  .430000000000D+02
     .302406000000D+06  .400000000000D+01
15 13 11 20 14  0  0.0 -.148108694702D-03 -.193267624127D-11  .000000000000D+00
     .530000000000D+02  .105062500000D+03  .462304971143D-08 -.310750589870D+01
     .542961061001D-05  .585775892250D-02  .102482736111D-04  .515361055374D+04
     .309600000000D+06 -.428408384323D-07 -.253855820651D+01 -.353902578354D-07
     .939128453327D+00  .171687500000D+03  .185497042536D+00 -.799247577584D-08
    -.546451333320D-10  .100000000000D+01  .176700000000D+04  .000000000000D+00
     .240000000000D+01  .000000000000D+00 -.102445483208D-07  .530000000000D+02
     .302406000000D+06  .400000000000D+01
